[{"OBJECT_NAME":"STARLINK-1746","OBJECT_ID":"2020-070BJ","EPOCH":"2026-03-10T00:00:02.999808","MEAN_MOTION":15.72577071,"ECCENTRICITY":0.00019759,"INCLINATION":53.0443,"RA_OF_ASC_NODE":113.4625,"ARG_OF_PERICENTER":101.3284,"MEAN_ANOMALY":240.7247,"EPHEMERIS_TYPE":0,"CLASSIFICATION_TYPE":"U","NORAD_CAT_ID":46588,"ELEMENT_SET_NO":999,"REV_AT_EPOCH":596,"BSTAR":0.001329381,"MEAN_MOTION_DOT":0.00185163,"MEAN_MOTION_DDOT":0},{"OBJECT_NAME":"STARLINK-11711 [DTC]","OBJECT_ID":"2025-127J","EPOCH":"2026-03-09T10:14:18.366144","MEAN_MOTION":15.7080646,"ECCENTRICITY":7.5e-5,"INCLINATION":43.0007,"RA_OF_ASC_NODE":85.8825,"ARG_OF_PERICENTER":309.6739,"MEAN_ANOMALY":50.4062,"EPHEMERIS_TYPE":0,"CLASSIFICATION_TYPE":"U","NORAD_CAT_ID":64378,"ELEMENT_SET_NO":999,"REV_AT_EPOCH":4357,"BSTAR":0.0015839652,"MEAN_MOTION_DOT":0.00207662,"MEAN_MOTION_DDOT":0}]
